IRIDIUM 116             
1 43072U 17083C   25063.53332104  .00000327  00000+0  10955-3 0  9996
2 43072  86.4034 158.3339 0001917  93.0402 267.1013 14.34214834376854
IRIDIUM 130             
1 43073U 17083D   25063.78068623  .00000491  00000+0  16820-3 0  9995
2 43073  86.4043 158.4600 0002105  89.2238 270.9199 14.34218667376834
IRIDIUM 151             
1 43074U 17083E   25063.54601086  .00000631  00000+0  21831-3 0  9990
2 43074  86.4037 158.3758 0001963  97.6045 262.5373 14.34215592376825
IRIDIUM 134             
1 43075U 17083F   25063.79337299  .00000590  00000+0  20370-3 0  9991
2 43075  86.4036 158.2741 0002166  90.2814 269.8630 14.34217530376825
IRIDIUM 137             
1 43076U 17083G   25063.80605492  .00000575  00000+0  19819-3 0  9996
2 43076  86.4040 158.3520 0001477  97.4913 262.6450 14.34218539376898
IRIDIUM 141             
1 43077U 17083H   25063.79972057  .00000464  00000+0  15870-3 0  9999
2 43077  86.4033 158.2122 0002443 101.9962 258.1507 14.34208894376893
IRIDIUM 153             
1 43078U 17083J   25063.68212571 -.00000095  00000+0 -40937-4 0  9991
2 43078  86.3973 126.7739 0002569 102.8457 257.3026 14.34216640377984
IRIDIUM 131             
1 43079U 17083K   25063.78702890 -.00000025  00000+0 -16007-4 0  9995
2 43079  86.4042 158.3719 0002034 104.4316 255.7105 14.34217134376822
